[{"OBJECT_NAME":"ONEWEB-0232","OBJECT_ID":"2021-045Q","EPOCH":"2025-09-12T22:00:09.187200","MEAN_MOTION":13.15548652,"ECCENTRICITY":0.00018635,"INCLINATION":87.9032,"RA_OF_ASC_NODE":314.483,"ARG_OF_PERICENTER":96.9258,"MEAN_ANOMALY":263.2085,"EPHEMERIS_TYPE":0,"CLASSIFICATION_TYPE":"U","NORAD_CAT_ID":48781,"ELEMENT_SET_NO":999,"REV_AT_EPOCH":20819,"BSTAR":0.00024622877,"MEAN_MOTION_DOT":1.06e-6,"MEAN_MOTION_DDOT":0},{"OBJECT_NAME":"ONEWEB-0231","OBJECT_ID":"2021-045R","EPOCH":"2025-09-12T21:28:10.962048","MEAN_MOTION":13.15549853,"ECCENTRICITY":0.00016092,"INCLINATION":87.9026,"RA_OF_ASC_NODE":314.5391,"ARG_OF_PERICENTER":93.6315,"MEAN_ANOMALY":266.5,"EPHEMERIS_TYPE":0,"CLASSIFICATION_TYPE":"U","NORAD_CAT_ID":48782,"ELEMENT_SET_NO":999,"REV_AT_EPOCH":20788,"BSTAR":-0.00019255501,"MEAN_MOTION_DOT":-6.0e-7,"MEAN_MOTION_DDOT":0},{"OBJECT_NAME":"ONEWEB-0234","OBJECT_ID":"2021-045S","EPOCH":"2025-09-13T02:01:48.313344","MEAN_MOTION":13.15551336,"ECCENTRICITY":0.00024076,"INCLINATION":87.9034,"RA_OF_ASC_NODE":314.4704,"ARG_OF_PERICENTER":116.6614,"MEAN_ANOMALY":243.4763,"EPHEMERIS_TYPE":0,"CLASSIFICATION_TYPE":"U","NORAD_CAT_ID":48783,"ELEMENT_SET_NO":999,"REV_AT_EPOCH":20804,"BSTAR":0.00027518172,"MEAN_MOTION_DOT":1.16e-6,"MEAN_MOTION_DDOT":0},{"OBJECT_NAME":"ONEWEB-0238","OBJECT_ID":"2021-045T","EPOCH":"2025-09-12T20:33:38.743488","MEAN_MOTION":13.15549132,"ECCENTRICITY":0.00021023,"INCLINATION":87.9032,"RA_OF_ASC_NODE":314.5116,"ARG_OF_PERICENTER":106.1535,"MEAN_ANOMALY":253.9826,"EPHEMERIS_TYPE":0,"CLASSIFICATION_TYPE":"U","NORAD_CAT_ID":48784,"ELEMENT_SET_NO":999,"REV_AT_EPOCH":20791,"BSTAR":0.00030572345,"MEAN_MOTION_DOT":1.28e-6,"MEAN_MOTION_DDOT":0},{"OBJECT_NAME":"ONEWEB-0240","OBJECT_ID":"2021-045U","EPOCH":"2025-09-12T21:04:14.844576","MEAN_MOTION":13.15547954,"ECCENTRICITY":0.0001629,"INCLINATION":87.9038,"RA_OF_ASC_NODE":314.4925,"ARG_OF_PERICENTER":104.9759,"MEAN_ANOMALY":255.1551,"EPHEMERIS_TYPE":0,"CLASSIFICATION_TYPE":"U","NORAD_CAT_ID":48785,"ELEMENT_SET_NO":999,"REV_AT_EPOCH":20794,"BSTAR":-0.00031045109,"MEAN_MOTION_DOT":-1.04e-6,"MEAN_MOTION_DDOT":0},{"OBJECT_NAME":"ONEWEB-0246","OBJECT_ID":"2021-045V","EPOCH":"2025-09-13T04:14:20.794848","MEAN_MOTION":13.15549581,"ECCENTRICITY":0.00017885,"INCLINATION":87.9039,"RA_OF_ASC_NODE":314.4453,"ARG_OF_PERICENTER":92.8777,"MEAN_ANOMALY":267.2558,"EPHEMERIS_TYPE":0,"CLASSIFICATION_TYPE":"U","NORAD_CAT_ID":48786,"ELEMENT_SET_NO":999,"REV_AT_EPOCH":20785,"BSTAR":-0.00015734856,"MEAN_MOTION_DOT":-4.6e-7,"MEAN_MOTION_DDOT":0},{"OBJECT_NAME":"ONEWEB-0210","OBJECT_ID":"2021-045W","EPOCH":"2025-09-12T22:09:16.651296","MEAN_MOTION":13.15548687,"ECCENTRICITY":0.00014212,"INCLINATION":87.9041,"RA_OF_ASC_NODE":314.4952,"ARG_OF_PERICENTER":78.4306,"MEAN_ANOMALY":281.6984,"EPHEMERIS_TYPE":0,"CLASSIFICATION_TYPE":"U","NORAD_CAT_ID":48787,"ELEMENT_SET_NO":999,"REV_AT_EPOCH":20786,"BSTAR":0.00036178434,"MEAN_MOTION_DOT":1.49e-6,"MEAN_MOTION_DDOT":0},{"OBJECT_NAME":"ONEWEB-0214","OBJECT_ID":"2021-045X","EPOCH":"2025-09-12T20:32:17.502432","MEAN_MOTION":13.15547957,"ECCENTRICITY":0.00017106,"INCLINATION":87.9038,"RA_OF_ASC_NODE":314.4963,"ARG_OF_PERICENTER":82.2731,"MEAN_ANOMALY":277.8594,"EPHEMERIS_TYPE":0,"CLASSIFICATION_TYPE":"U","NORAD_CAT_ID":48788,"ELEMENT_SET_NO":999,"REV_AT_EPOCH":20782,"BSTAR":7.9563891e-5,"MEAN_MOTION_DOT":4.3e-7,"MEAN_MOTION_DDOT":0},{"OBJECT_NAME":"ONEWEB-0221","OBJECT_ID":"2021-045Y","EPOCH":"2025-09-13T04:00:38.895840","MEAN_MOTION":13.15550107,"ECCENTRICITY":0.00016423,"INCLINATION":87.9029,"RA_OF_ASC_NODE":314.46,"ARG_OF_PERICENTER":96.6867,"MEAN_ANOMALY":263.445,"EPHEMERIS_TYPE":0,"CLASSIFICATION_TYPE":"U","NORAD_CAT_ID":48789,"ELEMENT_SET_NO":999,"REV_AT_EPOCH":20795,"BSTAR":0.00022673603,"MEAN_MOTION_DOT":9.8e-7,"MEAN_MOTION_DDOT":0},{"OBJECT_NAME":"ONEWEB-0213","OBJECT_ID":"2021-045Z","EPOCH":"2025-09-12T22:16:07.274208","MEAN_MOTION":13.15548518,"ECCENTRICITY":0.00016151,"INCLINATION":87.903,"RA_OF_ASC_NODE":314.5162,"ARG_OF_PERICENTER":93.2372,"MEAN_ANOMALY":266.8943,"EPHEMERIS_TYPE":0,"CLASSIFICATION_TYPE":"U","NORAD_CAT_ID":48790,"ELEMENT_SET_NO":999,"REV_AT_EPOCH":20798,"BSTAR":1.8872128e-5,"MEAN_MOTION_DOT":2.0e-7,"MEAN_MOTION_DDOT":0},{"OBJECT_NAME":"ONEWEB-0212","OBJECT_ID":"2021-045AA","EPOCH":"2025-09-12T10:45:54.230976","MEAN_MOTION":13.15548654,"ECCENTRICITY":0.0001868,"INCLINATION":87.9034,"RA_OF_ASC_NODE":314.5945,"ARG_OF_PERICENTER":98.862,"MEAN_ANOMALY":261.2722,"EPHEMERIS_TYPE":0,"CLASSIFICATION_TYPE":"U","NORAD_CAT_ID":48791,"ELEMENT_SET_NO":999,"REV_AT_EPOCH":20791,"BSTAR":0.00010520682,"MEAN_MOTION_DOT":5.2e-7,"MEAN_MOTION_DDOT":0},{"OBJECT_NAME":"ONEWEB-0227","OBJECT_ID":"2021-045AB","EPOCH":"2025-09-12T21:41:53.426112","MEAN_MOTION":13.15548489,"ECCENTRICITY":0.00017201,"INCLINATION":87.9028,"RA_OF_ASC_NODE":314.5223,"ARG_OF_PERICENTER":98.1147,"MEAN_ANOMALY":262.0179,"EPHEMERIS_TYPE":0,"CLASSIFICATION_TYPE":"U","NORAD_CAT_ID":48792,"ELEMENT_SET_NO":999,"REV_AT_EPOCH":20792,"BSTAR":-0.00010696859,"MEAN_MOTION_DOT":-2.7e-7,"MEAN_MOTION_DDOT":0},{"OBJECT_NAME":"ONEWEB-0226","OBJECT_ID":"2021-045AC","EPOCH":"2025-09-12T21:32:45.410784","MEAN_MOTION":13.15548047,"ECCENTRICITY":0.0001574,"INCLINATION":87.903,"RA_OF_ASC_NODE":314.5308,"ARG_OF_PERICENTER":89.3082,"MEAN_ANOMALY":270.8229,"EPHEMERIS_TYPE":0,"CLASSIFICATION_TYPE":"U","NORAD_CAT_ID":48793,"ELEMENT_SET_NO":999,"REV_AT_EPOCH":20789,"BSTAR":-0.00016617526,"MEAN_MOTION_DOT":-5.0e-7,"MEAN_MOTION_DDOT":0},{"OBJECT_NAME":"ONEWEB-0224","OBJECT_ID":"2021-045AD","EPOCH":"2025-09-13T02:08:51.281952","MEAN_MOTION":13.1554914,"ECCENTRICITY":0.00016939,"INCLINATION":87.9032,"RA_OF_ASC_NODE":314.5277,"ARG_OF_PERICENTER":128.7555,"MEAN_ANOMALY":231.3727,"EPHEMERIS_TYPE":0,"CLASSIFICATION_TYPE":"U","NORAD_CAT_ID":48794,"ELEMENT_SET_NO":999,"REV_AT_EPOCH":20784,"BSTAR":0.00027211094,"MEAN_MOTION_DOT":1.15e-6,"MEAN_MOTION_DDOT":0},{"OBJECT_NAME":"ONEWEB-0233","OBJECT_ID":"2021-045AE","EPOCH":"2025-09-13T04:05:01.129344","MEAN_MOTION":13.15548825,"ECCENTRICITY":0.00015505,"INCLINATION":87.9033,"RA_OF_ASC_NODE":314.5227,"ARG_OF_PERICENTER":101.5003,"MEAN_ANOMALY":258.6302,"EPHEMERIS_TYPE":0,"CLASSIFICATION_TYPE":"U","NORAD_CAT_ID":48795,"ELEMENT_SET_NO":999,"REV_AT_EPOCH":20787,"BSTAR":0.00022309716,"MEAN_MOTION_DOT":9.7e-7,"MEAN_MOTION_DDOT":0},{"OBJECT_NAME":"ONEWEB-0190","OBJECT_ID":"2021-045AF","EPOCH":"2025-09-12T22:18:22.980960","MEAN_MOTION":13.15550545,"ECCENTRICITY":0.00010795,"INCLINATION":87.9031,"RA_OF_ASC_NODE":314.5335,"ARG_OF_PERICENTER":90.6725,"MEAN_ANOMALY":269.4529,"EPHEMERIS_TYPE":0,"CLASSIFICATION_TYPE":"U","NORAD_CAT_ID":48796,"ELEMENT_SET_NO":999,"REV_AT_EPOCH":20791,"BSTAR":0.00040989739,"MEAN_MOTION_DOT":1.67e-6,"MEAN_MOTION_DDOT":0}]
