ONEWEB-0232             
1 48781U 21045Q   25255.91677300  .00000106  00000+0  24623-3 0  9998
2 48781  87.9032 314.4830 0001863  96.9258 263.2085 13.15548652208195
ONEWEB-0231             
1 48782U 21045R   25255.89457132 -.00000060  00000+0 -19256-3 0  9992
2 48782  87.9026 314.5391 0001609  93.6315 266.5000 13.15549853207880
ONEWEB-0234             
1 48783U 21045S   25256.08458696  .00000116  00000+0  27518-3 0  9991
2 48783  87.9034 314.4704 0002407 116.6614 243.4763 13.15551336208040
ONEWEB-0238             
1 48784U 21045T   25255.85669842  .00000128  00000+0  30572-3 0  9990
2 48784  87.9032 314.5116 0002102 106.1535 253.9826 13.15549132207917
ONEWEB-0240             
1 48785U 21045U   25255.87794959 -.00000104  00000+0 -31045-3 0  9993
2 48785  87.9038 314.4925 0001629 104.9759 255.1551 13.15547954207940
ONEWEB-0246             
1 48786U 21045V   25256.17662957 -.00000046  00000+0 -15735-3 0  9993
2 48786  87.9039 314.4453 0001788  92.8777 267.2558 13.15549581207858
ONEWEB-0210             
1 48787U 21045W   25255.92310939  .00000149  00000+0  36178-3 0  9992
2 48787  87.9041 314.4952 0001421  78.4306 281.6984 13.15548687207868
ONEWEB-0214             
1 48788U 21045X   25255.85575813  .00000043  00000+0  79564-4 0  9999
2 48788  87.9038 314.4963 0001710  82.2731 277.8594 13.15547957207822
ONEWEB-0221             
1 48789U 21045Y   25256.16711685  .00000098  00000+0  22674-3 0  9993
2 48789  87.9029 314.4600 0001642  96.6867 263.4450 13.15550107207951
ONEWEB-0213             
1 48790U 21045Z   25255.92786197  .00000020  00000+0  18872-4 0  9999
2 48790  87.9030 314.5162 0001615  93.2372 266.8943 13.15548518207983
ONEWEB-0212             
1 48791U 21045AA  25255.44854434  .00000052  00000+0  10521-3 0  9994
2 48791  87.9034 314.5945 0001868  98.8620 261.2722 13.15548654207912
ONEWEB-0227             
1 48792U 21045AB  25255.90409058 -.00000027  00000+0 -10697-3 0  9992
2 48792  87.9028 314.5223 0001720  98.1147 262.0179 13.15548489207921
ONEWEB-0226             
1 48793U 21045AC  25255.89774781 -.00000050  00000+0 -16618-3 0  9994
2 48793  87.9030 314.5308 0001574  89.3082 270.8229 13.15548047207895
ONEWEB-0224             
1 48794U 21045AD  25256.08948243  .00000115  00000+0  27211-3 0  9994
2 48794  87.9032 314.5277 0001693 128.7555 231.3727 13.15549140207843
ONEWEB-0233             
1 48795U 21045AE  25256.17015196  .00000097  00000+0  22310-3 0  9991
2 48795  87.9033 314.5227 0001550 101.5003 258.6302 13.15548825207872
ONEWEB-0190             
1 48796U 21045AF  25255.92943265  .00000167  00000+0  40990-3 0  9993
2 48796  87.9031 314.5335 0001079  90.6725 269.4529 13.15550545207914
